ONEWEB-0424             
1 50497U 21132AE  23244.11743169 -.00000170  00000+0 -46399-3 0  9994
2 50497  87.9215 178.3137 0002432  69.1116 291.0276 13.18688784 88483
ONEWEB-0426             
1 50498U 21132AF  23244.23126254  .00000072  00000+0  15031-3 0  9996
2 50498  87.9288 178.2824 0001679  76.4948 283.6371 13.18687677 88452
ONEWEB-0427             
1 50499U 21132AG  23244.11532440  .00000899  00000+0  22475-2 0  9998
2 50499  87.9233 178.3175 0002320  81.5003 278.6392 13.18684932 88476
ONEWEB-0429             
1 50500U 21132AH  23244.10268660  .00000040  00000+0  68132-4 0  9990
2 50500  87.9279 178.2914 0002089  78.3415 281.7952 13.18681794 88438
ONEWEB-0430             
1 50501U 21132AJ  23244.24387618  .00001584  00000+0  39846-2 0  9993
2 50501  87.9257 178.2606 0002150  81.6132 278.5244 13.18696182 88496
ONEWEB-0432             
1 50502U 21132AK  23244.12377508  .00000647  00000+0  16079-2 0  9990
2 50502  87.9219 178.3123 0002279  73.5364 286.6019 13.18685190 88441
ONEWEB-0440             
1 50503U 21132AL  23244.11111199  .00000084  00000+0  17923-3 0  9997
2 50503  87.9222 178.3284 0001729  98.7823 261.3505 13.18686488 88421
ONEWEB-0450             
1 50504U 21132AM  23243.27016012  .00000071  00000+0  14851-3 0  9995
2 50504  87.9266 178.4879 0002327  86.7995 273.3403 13.18686794 87051
